{"fetched_at":"2026-04-02T05:43:41Z","count":6320,"tles":[{"name":"STARLINK-37158","line1":"1 68343U 26059Y   26090.66668981 -.01987036  00000+0 -10314-1 0  9998","line2":"2 68343  53.1593 252.5541 0000492  78.1598 226.1343 15.83383183  2577","category":"Starlink"}]}